2025-313Z               
1 67271U 25313Z   26015.91301914  .00003026  00000+0  14319-3 0  9990
2 67271  97.4117  93.0547 0015690 169.8085 190.3472 15.20018899  2797
2025-313AA              
1 67272U 25313AA  26015.91052621  .00007278  00000+0  33639-3 0  9998
2 67272  97.4121  93.0566 0015402 174.1957 185.9459 15.20365353  2797
2025-313AB              
1 67273U 25313AB  26015.91289738  .00002241  00000+0  10700-3 0  9999
2 67273  97.4135  93.0581 0014603 178.2029 181.9262 15.20002400  2796
2025-313AC              
1 67274U 25313AC  26015.91168559  .00004330  00000+0  20263-3 0  9993
2 67274  97.4111  93.0627 0015365 173.2145 186.9301 15.20171178  2790
2025-313AD              
1 67275U 25313AD  26015.91102911  .00004539  00000+0  21192-3 0  9997
2 67275  97.4086  93.0578 0014585 176.0636 184.0716 15.20232457  2793
2025-313AE              
1 67276U 25313AE  26015.91099527  .00004781  00000+0  22307-3 0  9994
2 67276  97.4090  93.0586 0014523 176.1454 183.9896 15.20232092  2791
2025-313AF              
1 67277U 25313AF  26015.91123231  .00004190  00000+0  19610-3 0  9992
2 67277  97.4092  93.0590 0014520 175.9240 184.2116 15.20196958  2795
2025-313AG              
1 67278U 25313AG  26015.91106039  .00004310  00000+0  20152-3 0  9997
2 67278  97.4095  93.0599 0014484 175.8155 184.3204 15.20213893  2800
GALAPAGOS-UTE-SWSU      
1 67279U 25313AH  26015.91041252  .00004901  00000+0  22816-3 0  9998
2 67279  97.4106  93.0632 0015050 172.8494 187.2959 15.20290355  2790
2025-313AJ              
1 67280U 25313AJ  26015.90635310  .00003667  00000+0  17014-3 0  9995
2 67280  97.4176  93.0728 0013965 169.4620 190.6911 15.20582955  2797
2025-313AK              
1 67281U 25313AK  26015.90526187  .00003665  00000+0  16967-3 0  9991
2 67281  97.4059  93.0571 0012695 168.2287 191.9248 15.20674309  2791
2025-313AL              
1 67282U 25313AL  26015.90086388  .00003877  00000+0  17742-3 0  9993
2 67282  97.4109  93.0628 0011476 167.1328 193.0203 15.21052437  2798
