CCSDS_OMM_VERS = 2.0
CREATION_DATE  = 
ORIGINATOR     = 

OBJECT_NAME    = 2025-313Z
OBJECT_ID      = 2025-313Z
CENTER_NAME    = EARTH
REF_FRAME      = TEME
TIME_SYSTEM    = UTC
MEAN_ELEMENT_THEORY = SGP/SGP4

EPOCH          = 2026-01-15T21:54:44.853696
MEAN_MOTION    = 15.20018899
ECCENTRICITY   = .00156909
INCLINATION    = 97.4117
RA_OF_ASC_NODE = 93.0547
ARG_OF_PERICENTER = 169.8085
MEAN_ANOMALY   = 190.3472

EPHEMERIS_TYPE = 0
CLASSIFICATION_TYPE = U
NORAD_CAT_ID   = 67271
ELEMENT_SET_NO = 999
REV_AT_EPOCH   = 279
BSTAR          = .14319033E-3
MEAN_MOTION_DOT = .3026E-4
MEAN_MOTION_DDOT = 0

CCSDS_OMM_VERS = 2.0
CREATION_DATE  = 
ORIGINATOR     = 

OBJECT_NAME    = 2025-313AA
OBJECT_ID      = 2025-313AA
CENTER_NAME    = EARTH
REF_FRAME      = TEME
TIME_SYSTEM    = UTC
MEAN_ELEMENT_THEORY = SGP/SGP4

EPOCH          = 2026-01-15T21:51:09.464544
MEAN_MOTION    = 15.20365353
ECCENTRICITY   = .00154027
INCLINATION    = 97.4121
RA_OF_ASC_NODE = 93.0566
ARG_OF_PERICENTER = 174.1957
MEAN_ANOMALY   = 185.9459

EPHEMERIS_TYPE = 0
CLASSIFICATION_TYPE = U
NORAD_CAT_ID   = 67272
ELEMENT_SET_NO = 999
REV_AT_EPOCH   = 279
BSTAR          = .33638535E-3
MEAN_MOTION_DOT = .7278E-4
MEAN_MOTION_DDOT = 0

CCSDS_OMM_VERS = 2.0
CREATION_DATE  = 
ORIGINATOR     = 

OBJECT_NAME    = 2025-313AB
OBJECT_ID      = 2025-313AB
CENTER_NAME    = EARTH
REF_FRAME      = TEME
TIME_SYSTEM    = UTC
MEAN_ELEMENT_THEORY = SGP/SGP4

EPOCH          = 2026-01-15T21:54:34.333632
MEAN_MOTION    = 15.20002400
ECCENTRICITY   = .0014603
INCLINATION    = 97.4135
RA_OF_ASC_NODE = 93.0581
ARG_OF_PERICENTER = 178.2029
MEAN_ANOMALY   = 181.9262

EPHEMERIS_TYPE = 0
CLASSIFICATION_TYPE = U
NORAD_CAT_ID   = 67273
ELEMENT_SET_NO = 999
REV_AT_EPOCH   = 279
BSTAR          = .10699602E-3
MEAN_MOTION_DOT = .2241E-4
MEAN_MOTION_DDOT = 0

CCSDS_OMM_VERS = 2.0
CREATION_DATE  = 
ORIGINATOR     = 

OBJECT_NAME    = 2025-313AC
OBJECT_ID      = 2025-313AC
CENTER_NAME    = EARTH
REF_FRAME      = TEME
TIME_SYSTEM    = UTC
MEAN_ELEMENT_THEORY = SGP/SGP4

EPOCH          = 2026-01-15T21:52:49.634976
MEAN_MOTION    = 15.20171178
ECCENTRICITY   = .0015365
INCLINATION    = 97.4111
RA_OF_ASC_NODE = 93.0627
ARG_OF_PERICENTER = 173.2145
MEAN_ANOMALY   = 186.9301

EPHEMERIS_TYPE = 0
CLASSIFICATION_TYPE = U
NORAD_CAT_ID   = 67274
ELEMENT_SET_NO = 999
REV_AT_EPOCH   = 279
BSTAR          = .20263066E-3
MEAN_MOTION_DOT = .433E-4
MEAN_MOTION_DDOT = 0

CCSDS_OMM_VERS = 2.0
CREATION_DATE  = 
ORIGINATOR     = 

OBJECT_NAME    = 2025-313AD
OBJECT_ID      = 2025-313AD
CENTER_NAME    = EARTH
REF_FRAME      = TEME
TIME_SYSTEM    = UTC
MEAN_ELEMENT_THEORY = SGP/SGP4

EPOCH          = 2026-01-15T21:51:52.915104
MEAN_MOTION    = 15.20232457
ECCENTRICITY   = .00145857
INCLINATION    = 97.4086
RA_OF_ASC_NODE = 93.0578
ARG_OF_PERICENTER = 176.0636
MEAN_ANOMALY   = 184.0716

EPHEMERIS_TYPE = 0
CLASSIFICATION_TYPE = U
NORAD_CAT_ID   = 67275
ELEMENT_SET_NO = 999
REV_AT_EPOCH   = 279
BSTAR          = .21191819E-3
MEAN_MOTION_DOT = .4539E-4
MEAN_MOTION_DDOT = 0

CCSDS_OMM_VERS = 2.0
CREATION_DATE  = 
ORIGINATOR     = 

OBJECT_NAME    = 2025-313AE
OBJECT_ID      = 2025-313AE
CENTER_NAME    = EARTH
REF_FRAME      = TEME
TIME_SYSTEM    = UTC
MEAN_ELEMENT_THEORY = SGP/SGP4

EPOCH          = 2026-01-15T21:51:49.991328
MEAN_MOTION    = 15.20232092
ECCENTRICITY   = .00145236
INCLINATION    = 97.4090
RA_OF_ASC_NODE = 93.0586
ARG_OF_PERICENTER = 176.1454
MEAN_ANOMALY   = 183.9896

EPHEMERIS_TYPE = 0
CLASSIFICATION_TYPE = U
NORAD_CAT_ID   = 67276
ELEMENT_SET_NO = 999
REV_AT_EPOCH   = 279
BSTAR          = .22306717E-3
MEAN_MOTION_DOT = .4781E-4
MEAN_MOTION_DDOT = 0

CCSDS_OMM_VERS = 2.0
CREATION_DATE  = 
ORIGINATOR     = 

OBJECT_NAME    = 2025-313AF
OBJECT_ID      = 2025-313AF
CENTER_NAME    = EARTH
REF_FRAME      = TEME
TIME_SYSTEM    = UTC
MEAN_ELEMENT_THEORY = SGP/SGP4

EPOCH          = 2026-01-15T21:52:10.471584
MEAN_MOTION    = 15.20196958
ECCENTRICITY   = .00145205
INCLINATION    = 97.4092
RA_OF_ASC_NODE = 93.0590
ARG_OF_PERICENTER = 175.9240
MEAN_ANOMALY   = 184.2116

EPHEMERIS_TYPE = 0
CLASSIFICATION_TYPE = U
NORAD_CAT_ID   = 67277
ELEMENT_SET_NO = 999
REV_AT_EPOCH   = 279
BSTAR          = .19610043E-3
MEAN_MOTION_DOT = .419E-4
MEAN_MOTION_DDOT = 0

CCSDS_OMM_VERS = 2.0
CREATION_DATE  = 
ORIGINATOR     = 

OBJECT_NAME    = 2025-313AG
OBJECT_ID      = 2025-313AG
CENTER_NAME    = EARTH
REF_FRAME      = TEME
TIME_SYSTEM    = UTC
MEAN_ELEMENT_THEORY = SGP/SGP4

EPOCH          = 2026-01-15T21:51:55.617696
MEAN_MOTION    = 15.20213893
ECCENTRICITY   = .00144843
INCLINATION    = 97.4095
RA_OF_ASC_NODE = 93.0599
ARG_OF_PERICENTER = 175.8155
MEAN_ANOMALY   = 184.3204

EPHEMERIS_TYPE = 0
CLASSIFICATION_TYPE = U
NORAD_CAT_ID   = 67278
ELEMENT_SET_NO = 999
REV_AT_EPOCH   = 280
BSTAR          = .20151892E-3
MEAN_MOTION_DOT = .431E-4
MEAN_MOTION_DDOT = 0

CCSDS_OMM_VERS = 2.0
CREATION_DATE  = 
ORIGINATOR     = 

OBJECT_NAME    = GALAPAGOS-UTE-SWSU
OBJECT_ID      = 2025-313AH
CENTER_NAME    = EARTH
REF_FRAME      = TEME
TIME_SYSTEM    = UTC
MEAN_ELEMENT_THEORY = SGP/SGP4

EPOCH          = 2026-01-15T21:50:59.641728
MEAN_MOTION    = 15.20290355
ECCENTRICITY   = .00150502
INCLINATION    = 97.4106
RA_OF_ASC_NODE = 93.0632
ARG_OF_PERICENTER = 172.8494
MEAN_ANOMALY   = 187.2959

EPHEMERIS_TYPE = 0
CLASSIFICATION_TYPE = U
NORAD_CAT_ID   = 67279
ELEMENT_SET_NO = 999
REV_AT_EPOCH   = 279
BSTAR          = .22816268E-3
MEAN_MOTION_DOT = .4901E-4
MEAN_MOTION_DDOT = 0

CCSDS_OMM_VERS = 2.0
CREATION_DATE  = 
ORIGINATOR     = 

OBJECT_NAME    = 2025-313AJ
OBJECT_ID      = 2025-313AJ
CENTER_NAME    = EARTH
REF_FRAME      = TEME
TIME_SYSTEM    = UTC
MEAN_ELEMENT_THEORY = SGP/SGP4

EPOCH          = 2026-01-15T21:45:08.907840
MEAN_MOTION    = 15.20582955
ECCENTRICITY   = .00139651
INCLINATION    = 97.4176
RA_OF_ASC_NODE = 93.0728
ARG_OF_PERICENTER = 169.4620
MEAN_ANOMALY   = 190.6911

EPHEMERIS_TYPE = 0
CLASSIFICATION_TYPE = U
NORAD_CAT_ID   = 67280
ELEMENT_SET_NO = 999
REV_AT_EPOCH   = 279
BSTAR          = .1701374E-3
MEAN_MOTION_DOT = .3667E-4
MEAN_MOTION_DDOT = 0

CCSDS_OMM_VERS = 2.0
CREATION_DATE  = 
ORIGINATOR     = 

OBJECT_NAME    = 2025-313AK
OBJECT_ID      = 2025-313AK
CENTER_NAME    = EARTH
REF_FRAME      = TEME
TIME_SYSTEM    = UTC
MEAN_ELEMENT_THEORY = SGP/SGP4

EPOCH          = 2026-01-15T21:43:34.625568
MEAN_MOTION    = 15.20674309
ECCENTRICITY   = .00126952
INCLINATION    = 97.4059
RA_OF_ASC_NODE = 93.0571
ARG_OF_PERICENTER = 168.2287
MEAN_ANOMALY   = 191.9248

EPHEMERIS_TYPE = 0
CLASSIFICATION_TYPE = U
NORAD_CAT_ID   = 67281
ELEMENT_SET_NO = 999
REV_AT_EPOCH   = 279
BSTAR          = .16966676E-3
MEAN_MOTION_DOT = .3665E-4
MEAN_MOTION_DDOT = 0

CCSDS_OMM_VERS = 2.0
CREATION_DATE  = 
ORIGINATOR     = 

OBJECT_NAME    = 2025-313AL
OBJECT_ID      = 2025-313AL
CENTER_NAME    = EARTH
REF_FRAME      = TEME
TIME_SYSTEM    = UTC
MEAN_ELEMENT_THEORY = SGP/SGP4

EPOCH          = 2026-01-15T21:37:14.639232
MEAN_MOTION    = 15.21052437
ECCENTRICITY   = .00114769
INCLINATION    = 97.4109
RA_OF_ASC_NODE = 93.0628
ARG_OF_PERICENTER = 167.1328
MEAN_ANOMALY   = 193.0203

EPHEMERIS_TYPE = 0
CLASSIFICATION_TYPE = U
NORAD_CAT_ID   = 67282
ELEMENT_SET_NO = 999
REV_AT_EPOCH   = 279
BSTAR          = .17741508E-3
MEAN_MOTION_DOT = .3877E-4
MEAN_MOTION_DDOT = 0

